{
    "links": {
        "self": "http://www.neowsapp.com/rest/v1/neo/3840752?api_key=iIulBulltgU6a56xZRHN4H3l9WmuAYTsLGpBGhQ2"
    },
    "id": "3840752",
    "neo_reference_id": "3840752",
    "name": "(2019 FA3)",
    "designation": "2019 FA3",
    "nasa_jpl_url": "http://ssd.jpl.nasa.gov/sbdb.cgi?sstr=3840752",
    "absolute_magnitude_h": 21.0,
    "estimated_diameter": {
        "kilometers": {
            "estimated_diameter_min": 0.1677084622,
            "estimated_diameter_max": 0.3750075218
        },
        "meters": {
            "estimated_diameter_min": 167.7084621628,
            "estimated_diameter_max": 375.0075217981
        },
        "miles": {
            "estimated_diameter_min": 0.1042091748,
            "estimated_diameter_max": 0.2330187988
        },
        "feet": {
            "estimated_diameter_min": 550.2246310023,
            "estimated_diameter_max": 1230.3396778159
        }
    },
    "is_potentially_hazardous_asteroid": false,
    "close_approach_data": [
        {
            "close_approach_date": "2019-03-14",
            "close_approach_date_full": "2019-Mar-14 03:52",
            "epoch_date_close_approach": 1552535520000,
            "relative_velocity": {
                "kilometers_per_second": "10.4787895926",
                "kilometers_per_hour": "37723.6425332912",
                "miles_per_hour": "23440.0044396442"
            },
            "miss_distance": {
                "astronomical": "0.4157761958",
                "lunar": "161.7369401662",
                "kilometers": "62199233.288382946",
                "miles": "38648811.3962028148"
            },
            "orbiting_body": "Earth"
        }
    ],
    "orbital_data": {
        "orbit_id": "7",
        "orbit_determination_date": "2019-04-14 10:56:05",
        "first_observation_date": "2019-03-31",
        "last_observation_date": "2019-04-13",
        "data_arc_in_days": 13,
        "observations_used": 65,
        "orbit_uncertainty": "8",
        "minimum_orbit_intersection": ".325212",
        "jupiter_tisserand_invariant": "3.481",
        "epoch_osculation": "2458579.5",
        "eccentricity": ".4551206152434681",
        "semi_major_axis": "2.159204450336103",
        "inclination": "20.98377544752026",
        "ascending_node_longitude": "13.33391860395539",
        "orbital_period": "1158.881625132347",
        "perihelion_distance": "1.176505992462701",
        "perihelion_argument": "114.5410194191538",
        "aphelion_distance": "3.141902908209504",
        "perihelion_time": "2458492.701159958207",
        "mean_anomaly": "26.96356706102483",
        "mean_motion": ".3106443248324756",
        "equinox": "J2000",
        "orbit_class": {
            "orbit_class_type": "AMO",
            "orbit_class_description": "Near-Earth asteroid orbits similar to that of 1221 Amor",
            "orbit_class_range": "1.017 AU < q (perihelion) < 1.3 AU"
        }
    },
    "is_sentry_object": false
}